NOAA 15                 
1 25338U 98030A   23122.20837823  .00000282  00000+0  13566-3 0  9999
2 25338  98.6100 152.0431 0011603  89.0972 271.1537 14.26304192298703
DMSP 5D-3 F15 (USA 147) 
1 25991U 99067A   23121.94572833  .00000220  00000+0  13313-3 0  9994
2 25991  99.0709 124.3279 0010263  12.3753  43.9752 14.16721043208866
DMSP 5D-3 F16 (USA 172) 
1 28054U 03048A   23122.22429694  .00000156  00000+0  10635-3 0  9991
2 28054  99.0118 120.0925 0008086 130.9374 293.3111 14.13802212  8065
NOAA 18                 
1 28654U 05018A   23122.03729410  .00000239  00000+0  15197-3 0  9994
2 28654  98.9105 196.6490 0015033 147.5901 212.6197 14.12924948925056
METEOSAT-9 (MSG-2)      
1 28912U 05049B   23121.86695330  .00000139  00000+0  00000+0 0  9990
2 28912   6.7424  64.0948 0002382 207.5747 305.6865  1.00268674 63595
EWS-G1 (GOES 13)        
1 29155U 06018A   23121.41855087  .00000046  00000+0  00000+0 0  9992
2 29155   1.4139  91.9297 0000925 113.7464 225.5961  1.00268324 31911
DMSP 5D-3 F17 (USA 191) 
1 29522U 06050A   23122.24632173  .00000172  00000+0  11256-3 0  9996
2 29522  98.7558 136.1626 0011180  75.8875 284.3540 14.14241184850964
FENGYUN 3A              
1 32958U 08026A   23121.88080395  .00000153  00000+0  93971-4 0  9994
2 32958  98.5514  77.3002 0008678 175.2042 184.9219 14.18858900773375
FENGYUN 2E              
1 33463U 08066A   23120.78122913 -.00000197  00000+0  00000+0 0  9996
2 33463   6.6140  63.3048 0001581 338.4271 184.7445  1.00274817 52623
NOAA 19                 
1 33591U 09005A   23122.21762115  .00000246  00000+0  15743-3 0  9994
2 33591  99.1042 167.4008 0014001  16.9095 343.2541 14.12744329733451
GOES 14                 
1 35491U 09033A   23121.88936939 -.00000058  00000+0  00000+0 0  9993
2 35491   0.2278 109.9703 0006020 304.8181  16.6325  1.00269703 50708
METEOR-M 1              
1 35865U 09049A   23121.91395695  .00000230  00000+0  12215-3 0  9993
2 35865  98.5766  87.9041 0003001  42.4470 317.6940 14.22485579706958
DMSP 5D-3 F18 (USA 210) 
1 35951U 09057A   23122.27175540  .00000360  00000+0  21323-3 0  9997
2 35951  98.7648  99.5119 0009885 258.6362 101.3700 14.13743845698154
GOES 15                 
1 36411U 10008A   23121.73934240  .00000129  00000+0  00000+0 0  9995
2 36411   0.2457  95.1813 0001359 266.9168 341.8745  1.00140077 48192
COMS 1                  
1 36744U 10032A   23121.89710147 -.00000334  00000+0  00000+0 0  9995
2 36744   1.8704  89.3701 0000986 308.6209 272.6860  1.00272541 39639
FENGYUN 3B              
1 37214U 10059A   23122.13522114  .00000168  00000+0  11194-3 0  9994
2 37214  99.0870 138.7200 0022292 173.6105 186.5353 14.14332140646003
SUOMI NPP               
1 37849U 11061A   23122.15662900  .00000106  00000+0  71003-4 0  9990
2 37849  98.7019  61.6627 0001518  78.1686  46.9923 14.19572028596402
FENGYUN 2F              
1 38049U 12002A   23121.89069019 -.00000346  00000+0  00000+0 0  9992
2 38049   4.5741  77.0589 0001921  46.5953 169.1274  1.00270418 41422
METEOSAT-10 (MSG-3)     
1 38552U 12035B   23121.76749661  .00000002  00000+0  00000+0 0  9999
2 38552   2.0820  54.4744 0000361 309.4993 131.5600  1.00275897 39403
METOP-B                 
1 38771U 12049A   23122.20577079  .00000169  00000+0  97222-4 0  9990
2 38771  98.6819 182.3403 0001481 112.9676 316.2779 14.21503764551016
FENGYUN 3C              
1 39260U 13052A   23122.17285459  .00000173  00000+0  10833-3 0  9990
2 39260  98.4317 138.7446 0012341  76.8760 283.3797 14.16028920497026
METEOR-M 2              
1 40069U 14037A   23122.07261675  .00000102  00000+0  66587-4 0  9996
2 40069  98.4248 130.1866 0006847 110.8266 249.3653 14.20772105457108
HIMAWARI-8              
1 40267U 14060A   23121.93887897 -.00000267  00000+0  00000+0 0  9992
2 40267   0.0170 260.0407 0001129 149.3194 288.9058  1.00268097 31414
FENGYUN 2G              
1 40367U 14090A   23121.88566237 -.00000293  00000+0  00000+0 0  9991
2 40367   2.7380  86.1131 0002177  55.2686 136.5809  1.00281834 30542
METEOSAT-11 (MSG-4)     
1 40732U 15034A   23121.76932708  .00000071  00000+0  00000+0 0  9996
2 40732   0.5314  32.4311 0000897  52.4180  60.8393  1.00272086 28565
ELEKTRO-L 2             
1 41105U 15074A   23121.76462017 -.00000104  00000+0  00000+0 0  9994
2 41105   3.7904  84.3504 0000091 206.5380 189.3308  1.00271154 27062
HIMAWARI-9              
1 41836U 16064A   23121.90125310 -.00000266  00000+0  00000+0 0  9992
2 41836   0.0335  84.7832 0000587 322.2612 277.7401  1.00273740 23732
GOES 16                 
1 41866U 16071A   23120.46218696 -.00000244  00000+0  00000+0 0  9999
2 41866   0.0277 284.2370 0000405 127.5037 257.6048  1.00271245 23631
FENGYUN 4A              
1 41882U 16077A   23122.31824721 -.00000320  00000+0  00000+0 0  9996
2 41882   0.1402 288.3248 0004450 214.8432 296.1188  1.00268644 23533
CYGFM05                 
1 41884U 16078A   23121.91792749  .00005944  00000+0  27287-3 0  9994
2 41884  34.9566  14.6582 0012759  61.2429 298.9565 15.19683372353295
CYGFM04                 
1 41885U 16078B   23121.06439798  .00006776  00000+0  30551-3 0  9995
2 41885  34.9498   7.3651 0011220  74.2865 285.9085 15.20284551353129
CYGFM02                 
1 41886U 16078C   23121.11261192  .00006622  00000+0  29822-3 0  9992
2 41886  34.9588   9.3720 0011861  67.5419 292.6550 15.20327016353216
CYGFM01                 
1 41887U 16078D   23121.89663458  .00006380  00000+0  29454-3 0  9991
2 41887  34.9533  17.7216 0013305  60.9887 299.2158 15.19463053353139
CYGFM08                 
1 41888U 16078E   23121.90817106  .00006277  00000+0  28531-3 0  9995
2 41888  34.9501   8.7099 0012206  75.1012 285.1052 15.20014686353314
CYGFM07                 
1 41890U 16078G   23121.93463594  .00006191  00000+0  27810-3 0  9993
2 41890  34.9519   1.6281 0010705  80.9490 279.2434 15.20438754353412
CYGFM03                 
1 41891U 16078H   23121.87536416  .00006075  00000+0  27427-3 0  9996
2 41891  34.9556   2.6637 0010151  77.2155 282.9692 15.20273474353246
FENGYUN 3D              
1 43010U 17072A   23122.30811168  .00000210  00000+0  12149-3 0  9995
2 43010  98.8570  70.9488 0002542  80.5562 279.5903 14.19189787282992
NOAA 20                 
1 43013U 17073A   23122.23701954  .00000097  00000+0  66958-4 0  9993
2 43013  98.7502  61.3115 0000800 104.0931 256.0334 14.19544475282455
GOES 17                 
1 43226U 18022A   23121.54175704 -.00000083  00000+0  00000+0 0  9992
2 43226   0.0139  88.3648 0002064 336.3054 244.8349  1.00269884 18972
FENGYUN 2H              
1 43491U 18050A   23121.89793174 -.00000118  00000+0  00000+0 0  9991
2 43491   1.9584  91.7057 0002420  63.7085 106.6198  1.00273655 17981
METOP-C                 
1 43689U 18087A   23122.08831170  .00000157  00000+0  91741-4 0  9990
2 43689  98.6864 182.3378 0002937 173.2477 186.8741 14.21497094232572
GEO-KOMPSAT-2A          
1 43823U 18100A   23120.88772427 -.00000338  00000+0  00000+0 0  9996
2 43823   0.0251  98.3167 0002124 328.7411 239.3526  1.00267749 16192
METEOR-M2 2             
1 44387U 19038A   23122.21154234  .00000107  00000+0  66189-4 0  9990
2 44387  98.7709  86.2168 0002399  76.4609 283.6840 14.23777407198768
FENGYUN 3E              
1 49008U 21062A   23122.13085614  .00000037  00000+0  38369-4 0  9992
2 49008  98.7221 124.2247 0002396 115.7146 244.4282 14.19677659 94531
GOES 18                 
1 51850U 22021A   23122.02683191  .00000106  00000+0  00000+0 0  9991
2 51850   0.0154 122.5208 0000380 261.3241  68.5034  1.00271933  4355
NOAA 21 (JPSS-2)        
1 54234U 22150A   23121.90070034  .00000108  00000+0  72002-4 0  9993
2 54234  98.7140  60.5837 0001037 103.5245 256.6047 14.19537903 24489
METEOSAT-12             
1 54743U 22170C   23121.76679931 -.00000025  00000+0  00000+0 0  9998
2 54743   0.6892 306.4379 0003177 106.8043  78.6026  1.00271569  1520
